NORAD_CAT_ID,OBJECT_NAME,OBJECT_TYPE,EPOCH,MEAN_MOTION,ECCENTRICITY,INCLINATION,RA_OF_ASC_NODE,ARG_OF_PERICENTER,MEAN_ANOMALY,BSTAR,MEAN_MOTION_DOT,MEAN_MOTION_DDOT,TLE_LINE0,TLE_LINE1,TLE_LINE2,SEMIMAJOR_AXIS,PERIOD,APOGEE,PERIGEE,DECAYED
55916.0,STARLINK-5796,PAYLOAD,2023-04-17 22:00:00,15.57040388,0.0003375,69.9992,93.6857,266.193,131.6914,-0.014035,-0.00924735,0.0,0 STARLINK-5796,1 55916U 23037C   23107.91667824 -.00924735  00000-0 -14035-1 0  9993,2 55916  69.9992  93.6857 0003375 266.1930 131.6914 15.57040388  5411,6774.365,92.483,398.516,393.944,0.0
55916.0,STARLINK-5796,PAYLOAD,2023-04-18 14:00:01,15.55736053,0.0003171,69.9989,91.8485,270.2698,261.778,-0.015072,-0.00943898,0.0,0 STARLINK-5796,1 55916U 23037C   23108.58334491 -.00943898  00000-0 -15072-1 0  9991,2 55916  69.9989  91.8485 0003171 270.2698 261.7780 15.55736053  1304,6778.151,92.561,402.165,397.867,0.0
55916.0,STARLINK-5796,PAYLOAD,2023-04-18 22:00:00,15.55080266,0.0003295,69.9991,90.9314,264.0683,333.8798,-0.014955,-0.00916836,0.0,0 STARLINK-5796,1 55916U 23037C   23108.91667824 -.00916836  00000-0 -14955-1 0  9998,2 55916  69.9991  90.9314 0003295 264.0683 333.8798 15.55080266  1308,6780.056,92.6,404.155,399.687,0.0
55916.0,STARLINK-5796,PAYLOAD,2023-04-19 10:00:00,15.54085017,0.0003199,69.9993,89.5571,275.087,240.2627,-0.015176,-0.00898686,0.0,0 STARLINK-5796,1 55916U 23037C   23109.41667824 -.00898686  00000-0 -15176-1 0  9992,2 55916  69.9993  89.5571 0003199 275.0870 240.2627 15.54085017  5643,6782.951,92.659,406.986,402.646,0.0
55916.0,STARLINK-5796,PAYLOAD,2023-04-19 14:00:01,15.53772628,0.0003344,69.9992,89.0997,271.8082,95.6144,-0.016039,-0.00935333,0.0,0 STARLINK-5796,1 55916U 23037C   23109.58334491 -.00935333  00000-0 -16039-1 0  9991,2 55916  69.9992  89.0997 0003344 271.8082  95.6144 15.53772628  1305,6783.86,92.678,407.993,403.456,0.0
55916.0,STARLINK-5796,PAYLOAD,2023-04-19 22:00:00,15.53129509,0.0003392,69.9996,88.1855,268.2477,162.7242,-0.016246,-0.0092637,0.0,0 STARLINK-5796,1 55916U 23037C   23109.91667824 -.00926370  00000-0 -16246-1 0  9998,2 55916  69.9996  88.1855 0003392 268.2477 162.7242 15.53129509  1302,6785.732,92.716,409.899,405.296,0.0
55916.0,STARLINK-5796,PAYLOAD,2023-04-20 14:00:01,15.51716458,0.000335,69.9993,86.3593,272.223,283.5479,-0.011996,-0.00660509,0.0,0 STARLINK-5796,1 55916U 23037C   23110.58334491 -.00660509  00000-0 -11996-1 0  9990,2 55916  69.9993  86.3593 0003350 272.2230 283.5479 15.51716458  1301,6789.851,92.8,413.991,409.442,0.0
55916.0,STARLINK-5796,PAYLOAD,2023-04-20 22:00:00,15.51233502,0.0003445,69.9998,85.4477,265.8503,351.116,5.1862e-05,2.884e-05,0.0,0 STARLINK-5796,1 55916U 23037C   23110.91667824  .00002884  00000-0  51862-4 0  9999,2 55916  69.9998  85.4477 0003445 265.8503 351.1160 15.51233502  1306,6791.261,92.829,415.465,410.786,0.0
55916.0,STARLINK-5796,PAYLOAD,2023-04-21 14:00:01,15.51234235,0.0003543,69.9997,83.625,268.9041,109.8935,-0.00055421,-0.00032598,0.0,0 STARLINK-5796,1 55916U 23037C   23111.58334491 -.00032598  00000-0 -55421-3 0  9995,2 55916  69.9997  83.6250 0003543 268.9041 109.8935 15.51234235  1306,6791.258,92.829,415.53,410.717,0.0
55916.0,STARLINK-5796,PAYLOAD,2023-04-21 22:00:00,15.51242575,0.0003562,70.0001,82.7136,264.0516,175.6491,-0.00020416,-0.00012147,0.0,0 STARLINK-5796,1 55916U 23037C   23111.91667824 -.00012147  00000-0 -20416-3 0  9995,2 55916  70.0001  82.7136 0003562 264.0516 175.6491 15.51242575  1307,6791.234,92.829,415.518,410.68,0.0
55916.0,STARLINK-5796,PAYLOAD,2023-04-22 14:00:01,15.51255353,0.0003418,70.0002,80.891,266.9628,294.5834,-0.0015111,-0.00088046,0.0,0 STARLINK-5796,1 55916U 23037C   23112.58334491 -.00088046  00000-0 -15111-2 0  9996,2 55916  70.0002  80.8910 0003418 266.9628 294.5834 15.51255353  1302,6791.197,92.828,415.383,410.741,0.0
55916.0,STARLINK-5796,PAYLOAD,2023-04-22 22:00:01,15.51224788,0.0003469,70.0005,79.98,261.125,1.3891,0.00026941,0.00015692,0.0,0 STARLINK-5796,1 55916U 23037C   23112.91668981  .00015692  00000-0  26941-3 0  9996,2 55916  70.0005  79.9800 0003469 261.1250   1.3891 15.51224788  1301,6791.286,92.83,415.507,410.795,0.0
55916.0,STARLINK-5796,PAYLOAD,2023-04-23 14:00:01,15.51252135,0.0003447,70.0002,78.1573,262.3254,121.9505,-0.0010775,-0.0006302,0.0,0 STARLINK-5796,1 55916U 23037C   23113.58334491 -.00063020  00000-0 -10775-2 0  9993,2 55916  70.0002  78.1573 0003447 262.3254 121.9505 15.51252135  1307,6791.206,92.828,415.412,410.73,0.0
55916.0,STARLINK-5796,PAYLOAD,2023-04-23 22:00:00,15.51248927,0.0003494,70.0006,77.246,258.3257,186.8597,-0.00043439,-0.00025621,0.0,0 STARLINK-5796,1 55916U 23037C   23113.91667824 -.00025621  00000-0 -43439-3 0  9998,2 55916  70.0006  77.2460 0003494 258.3257 186.8597 15.51248927  6340,6791.216,92.828,415.453,410.708,0.0
55916.0,STARLINK-5796,PAYLOAD,2023-04-24 03:49:28,15.5123867,0.0003585,69.9994,76.5839,260.5211,99.557,8.1209e-05,4.611e-05,0.0,0 STARLINK-5796,1 55916U 23037C   23114.15936324  .00004611  00000-0  81209-4 0  9991,2 55916  69.9994  76.5839 0003585 260.5211  99.5570 15.51238670  6380,6791.245,92.829,415.545,410.676,0.0
55916.0,STARLINK-5796,PAYLOAD,2023-04-24 23:56:38,15.51225983,0.000339,70.0003,74.2929,264.1132,95.9667,2.2794e-05,1.174e-05,0.0,0 STARLINK-5796,1 55916U 23037C   23114.99766829  .00001174  00000-0  22794-4 0  9999,2 55916  70.0003  74.2929 0003390 264.1132  95.9667 15.51225983  6510,6791.282,92.83,415.45,410.845,0.0
55916.0,STARLINK-5796,PAYLOAD,2023-04-25 06:08:04,15.51230858,0.0003004,70.0004,73.5874,261.8559,98.2287,4.4753e-05,2.465e-05,0.0,0 STARLINK-5796,1 55916U 23037C   23115.25560437  .00002465  00000-0  44753-4 0  9999,2 55916  70.0004  73.5874 0003004 261.8559  98.2287 15.51230858  6219,6791.268,92.83,415.173,411.093,0.0
55916.0,STARLINK-5796,PAYLOAD,2023-04-26 06:53:42,15.51529569,0.0006157,70.0027,70.7688,262.1725,97.8763,0.0021647,0.00130575,0.0,0 STARLINK-5796,1 55916U 23037C   23116.28730166  .00130575  00000-0  21647-2 0  9990,2 55916  70.0027  70.7688 0006157 262.1725  97.8763 15.51529569  6378,6790.397,92.812,416.442,408.081,0.0
55916.0,STARLINK-5796,PAYLOAD,2023-04-26 20:50:44,15.49753618,0.0003447,70.0005,69.1826,255.8105,104.2698,-0.0064837,-0.00346315,0.0,0 STARLINK-5796,1 55916U 23037C   23116.86857149 -.00346315  00000-0 -64837-2 0  9996,2 55916  70.0005  69.1826 0003447 255.8105 104.2698 15.49753618  6461,6795.583,92.918,419.791,415.106,0.0
55916.0,STARLINK-5796,PAYLOAD,2023-04-27 06:00:02,15.48262777,0.0003311,70.0005,68.1417,275.0006,51.4222,-0.018115,-0.00873193,0.0,0 STARLINK-5796,1 55916U 23037C   23117.25002315 -.00873193  00000-0 -18115-1 0  9993,2 55916  70.0005  68.1417 0003311 275.0006  51.4222 15.48262777  6860,6799.945,93.007,424.061,419.558,0.0
55916.0,STARLINK-5796,PAYLOAD,2023-04-27 14:00:01,15.4760912,0.0003298,70.0003,67.2348,269.633,113.7793,-0.018689,-0.00879847,0.0,0 STARLINK-5796,1 55916U 23037C   23117.58335648 -.00879847  00000-0 -18689-1 0  9995,2 55916  70.0003  67.2348 0003298 269.6330 113.7793 15.47609120  1309,6801.859,93.047,425.968,421.481,0.0
55916.0,STARLINK-5796,PAYLOAD,2023-04-28 00:00:00,15.46824463,0.0003241,70.0004,66.1023,269.565,273.9096,-0.020442,-0.00944375,0.0,0 STARLINK-5796,1 55916U 23037C   23118.00001157 -.00944375  00000-0 -20442-1 0  9997,2 55916  70.0004  66.1023 0003241 269.5650 273.9096 15.46824463  6971,6804.16,93.094,428.23,423.819,0.0
55916.0,STARLINK-5796,PAYLOAD,2023-04-28 14:00:01,15.45647285,0.0003203,70.0003,64.5196,268.9155,280.7018,-0.019774,-0.00882183,0.0,0 STARLINK-5796,1 55916U 23037C   23118.58334491 -.00882183  00000-0 -19774-1 0  9994,2 55916  70.0003  64.5196 0003203 268.9155 280.7018 15.45647285  1300,6807.614,93.165,431.659,427.298,0.0
55916.0,STARLINK-5796,PAYLOAD,2023-04-28 22:00:00,15.45046974,0.0003339,70.0003,63.6162,265.9053,337.5504,-0.022108,-0.00959335,0.0,0 STARLINK-5796,1 55916U 23037C   23118.91667824 -.00959335  00000-0 -22108-1 0  9999,2 55916  70.0003  63.6162 0003339 265.9053 337.5504 15.45046974  7122,6809.377,93.201,433.516,428.968,0.0
55916.0,STARLINK-5796,PAYLOAD,2023-04-29 14:00:01,15.4368493,0.0003451,70.0001,61.812,270.8491,78.0606,-0.020922,-0.00873661,0.0,0 STARLINK-5796,1 55916U 23037C   23119.58335648 -.00873661  00000-0 -20922-1 0  9998,2 55916  70.0001  61.8120 0003451 270.8491  78.0606 15.43684930  1302,6813.382,93.283,437.598,432.896,0.0
55916.0,STARLINK-5796,PAYLOAD,2023-04-29 22:00:00,15.43090485,0.000357,70.0005,60.9115,269.8169,130.5195,-0.023694,-0.00961788,0.0,0 STARLINK-5796,1 55916U 23037C   23119.91667824 -.00961788  00000-0 -23694-1 0  9996,2 55916  70.0005  60.9115 0003570 269.8169 130.5195 15.43090485  7277,6815.132,93.319,439.43,434.564,0.0
55916.0,STARLINK-5796,PAYLOAD,2023-04-30 14:00:01,15.41728009,0.0003391,70.0002,59.1125,270.7893,230.2409,-0.022264,-0.00870622,0.0,0 STARLINK-5796,1 55916U 23037C   23120.58334491 -.00870622  00000-0 -22264-1 0  9990,2 55916  70.0002  59.1125 0003391 270.7893 230.2409 15.41728009  1303,6819.146,93.402,443.324,438.699,0.0
55916.0,STARLINK-5796,PAYLOAD,2023-04-30 16:00:00,15.41562181,0.0003431,70.0002,58.8879,266.1734,337.219,-0.021989,-0.00856272,0.0,0 STARLINK-5796,1 55916U 23037C   23120.66667824 -.00856272  00000-0 -21989-1 0  9996,2 55916  70.0002  58.8879 0003431 266.1734 337.2190 15.41562181  7390,6819.635,93.412,443.84,439.16,0.0
55916.0,STARLINK-5796,PAYLOAD,2023-05-01 06:00:00,15.40432286,0.00034,70.0006,57.3172,271.9291,326.642,-0.023429,-0.00876955,0.0,0 STARLINK-5796,1 55916U 23037C   23121.25001157 -.00876955  00000-0 -23429-1 0  9994,2 55916  70.0006  57.3172 0003400 271.9291 326.6420 15.40432286  7481,6822.97,93.48,447.154,442.515,0.0
55916.0,STARLINK-5796,PAYLOAD,2023-05-01 14:00:01,15.39769394,0.0003392,70.0006,56.4209,267.9822,18.1949,-0.023745,-0.00870058,0.0,0 STARLINK-5796,1 55916U 23037C   23121.58334491 -.00870058  00000-0 -23745-1 0  9999,2 55916  70.0006  56.4209 0003392 267.9822  18.1949 15.39769394  1302,6824.928,93.52,449.108,444.478,0.0
